BEIDOU-3S IGSO-1S       
1 40549U 15019A   26166.84191791 -.00000176  00000+0  00000+0 0  9992
2 40549  49.1979 295.4779 0039128 191.2662 172.0144  1.00250248 41068
NAVSTAR 74 (USA 262)    
1 40730U 15033A   26166.72525519 -.00000016  00000+0  00000+0 0  9999
2 40730  53.9835 267.1468 0115059  30.2204 330.4754  2.00556275 79964
BEIDOU-3S M2S           
1 40748U 15037A   26167.24943955 -.00000070  00000+0  00000+0 0  9998
2 40748  54.8724 302.0791 0008379 259.1051 100.7870  1.86232022 74108
BEIDOU-3S M1S           
1 40749U 15037B   26167.45695307 -.00000070  00000+0  00000+0 0  9997
2 40749  54.8681 302.0591 0003448  61.8038 298.2180  1.86254750 74114
GSAT0205 (GALILEO 9)    
1 40889U 15045A   26144.30399159 -.00000014  00000+0  00000+0 0  9994
2 40889  54.9357 222.4171 0006405 263.0112  96.9692  1.67409242 66562
GSAT0206 (GALILEO 10)   
1 40890U 15045B   26166.69756315  .00000052  00000+0  00000+0 0  9994
2 40890  54.9450 221.6455 0001791 333.6365  26.4548  1.70473766 67016
BEIDOU-3S IGSO-2S       
1 40938U 15053A   26167.64207361 -.00000129  00000+0  00000+0 0  9990
2 40938  49.2224 258.7891 0065689 192.0911 140.3729  1.00258798 39341
NAVSTAR 75 (USA 265)    
1 41019U 15062A   26167.27999492 -.00000069  00000+0  00000+0 0  9996
2 41019  56.9588  30.8461 0111891 231.0569 127.9967  2.00566870 77815
GSAT-15                 
1 41028U 15065A   26167.64739351 -.00000260  00000+0  00000+0 0  9999
2 41028   0.0714 265.2716 0004217 162.9706 163.2288  1.00272462 38794
GSAT0209 (GALILEO 12)   
1 41174U 15079A   26166.27899133 -.00000013  00000+0  00000+0 0  9995
2 41174  55.8263 101.3143 0005316 342.9908  16.9497  1.70473583 64746
GSAT0208 (GALILEO 11)   
1 41175U 15079B   26167.08588476 -.00000013  00000+0  00000+0 0  9991
2 41175  55.8253 101.2890 0004864 343.1626  16.7832  1.70473579 65175
IRNSS-1E                
1 41241U 16003A   26165.65025189 -.00000320  00000+0  00000+0 0  9992
2 41241  33.2222  59.7855 0023517 150.0031  38.8029  1.00279169 38056
NAVSTAR 76 (USA 266)    
1 41328U 16007A   26161.88615663 -.00000012  00000+0  00000+0 0  9993
2 41328  55.5202  89.7095 0096051 247.3753 111.5952  2.00551966 75717
COSMOS 2514 [GLONASS-M] 
1 41330U 16008A   26167.34663818 -.00000054  00000+0  00000+0 0  9995
2 41330  65.0222 313.0353 0011274 198.0125 161.9323  2.13102535 80600
BEIDOU-2 IGSO-6         
1 41434U 16021A   26167.12386227 -.00000150  00000+0  00000+0 0  9994
2 41434  60.2243  38.0497 0057184 231.4868 132.3999  1.00259474 37472
IRNSS-1G                
1 41469U 16027A   26167.60079994 -.00000340  00000+0  00000+0 0  9992
2 41469   5.1966  97.4865 0007547 354.8982 158.2673  1.00266365 37173
GSAT0211 (GALILEO 14)   
1 41549U 16030A   26165.45012091  .00000059  00000+0  00000+0 0  9997
2 41549  55.0959 221.7703 0002887 323.8922  36.1904  1.70473900 62624
GSAT0210 (GALILEO 13)   
1 41550U 16030B   26165.70738424  .00000058  00000+0  00000+0 0  9991
2 41550  55.0955 221.7612 0004648 244.9793 115.0745  1.70473923 62622
BEIDOU-2 G7             
1 41586U 16037A   26167.67741251 -.00000357  00000+0  00000+0 0  9990
2 41586   1.7184  69.3105 0006431 357.8995 192.0456  1.00276832  6889
EUTELSAT 117 WEST B     
1 41589U 16038B   26167.46518793 -.00000013  00000+0  00000+0 0  9993
2 41589   0.0091 156.2537 0000488 289.9959 228.9522  1.00271793 36659
GSAT0207 (GALILEO 15)   
1 41859U 16069A   26166.57222480 -.00000014  00000+0  00000+0 0  9994
2 41859  55.4979 101.1309 0005290 329.9207  30.0086  1.70473545 59378
GSAT0212 (GALILEO 16)   
1 41860U 16069B   26165.25248100 -.00000011  00000+0  00000+0 0  9994
2 41860  55.4947 101.1626 0004642 358.3825   1.5720  1.70473713 59600
GSAT0213 (GALILEO 17)   
1 41861U 16069C   26166.20630291 -.00000013  00000+0  00000+0 0  9999
2 41861  55.4975 101.1440 0004958 312.6321  47.2844  1.70474116 59488
GSAT0214 (GALILEO 18)   
1 41862U 16069D   26165.17933449 -.00000010  00000+0  00000+0 0  9993
2 41862  55.4956 101.1651 0004255 319.5735  40.3509  1.70473798 59596
SES-15                  
1 42709U 17026A   26167.51672836  .00000059  00000+0  00000+0 0  9990
2 42709   0.0194 338.0719 0000402  53.1315 290.4171  1.00268066  7429
QZS-2 (MICHIBIKI-2)     
1 42738U 17028A   26166.51989272 -.00000144  00000+0  00000+0 0  9994
2 42738  39.4302 243.1796 0760513 269.2356  80.1810  1.00284423  7609
QZS-3 (MICHIBIKI-3)     
1 42917U 17048A   26167.56744936 -.00000350  00000+0  00000+0 0  9996
2 42917   0.0681 171.4535 0001837 271.0202 153.5962  1.00276306 32257
COSMOS 2522 [GLONASS-M] 
1 42939U 17055A   26167.18444435  .00000077  00000+0  00000+0 0  9992
2 42939  64.0787 191.9186 0010811 240.4183 119.5344  2.13101765 67959
QZS-4 (MICHIBIKI-4)     
1 42965U 17062A   26167.35401075 -.00000348  00000+0  00000+0 0  9993
2 42965  40.1083 343.4922 0745175 271.7618 273.8478  1.00250450 31798
BEIDOU-3 M1             
1 43001U 17069A   26167.05913703 -.00000050  00000+0  00000+0 0  9995
2 43001  56.6914  63.1220 0010416 325.8468  34.1241  1.86230800 58582
BEIDOU-3 M2             
1 43002U 17069B   26166.99787615 -.00000050  00000+0  00000+0 0  9999
2 43002  56.6897  63.1605 0009202 351.0266   8.9945  1.86230738 58577
